0 CZ-4 DEB
1 37620U 90081DG  13282.96791792  .00000916  00000-0  43142-3 0   873
2 37620 098.6774 322.7324 0003419 213.9179 146.3507 14.22330947436232
0 CZ-4 DEB
1 37620U 90081DG  13287.32937990  .00001066  00000-0  49902-3 0   888
2 37620 098.6583 326.9917 0002598 214.8714 145.2746 14.22343746436858
0 CZ-4 DEB
1 37620U 90081DG  13291.33909736  .00001156  00000-0  53903-3 0   898
2 37620 098.6688 330.9562 0004912 159.0871 201.1020 14.22355145437428
